{
    "links": {
        "self": "http://www.neowsapp.com/rest/v1/neo/54073347?api_key=iIulBulltgU6a56xZRHN4H3l9WmuAYTsLGpBGhQ2"
    },
    "id": "54073347",
    "neo_reference_id": "54073347",
    "name": "(2020 UG)",
    "designation": "2020 UG",
    "nasa_jpl_url": "http://ssd.jpl.nasa.gov/sbdb.cgi?sstr=54073347",
    "absolute_magnitude_h": 26.609,
    "estimated_diameter": {
        "kilometers": {
            "estimated_diameter_min": 0.0126693687,
            "estimated_diameter_max": 0.0283295697
        },
        "meters": {
            "estimated_diameter_min": 12.669368746,
            "estimated_diameter_max": 28.329569748
        },
        "miles": {
            "estimated_diameter_min": 0.0078723783,
            "estimated_diameter_max": 0.0176031731
        },
        "feet": {
            "estimated_diameter_min": 41.5661717566,
            "estimated_diameter_max": 92.9447856121
        }
    },
    "is_potentially_hazardous_asteroid": false,
    "close_approach_data": [
        {
            "close_approach_date": "2006-09-27",
            "close_approach_date_full": "2006-Sep-27 23:14",
            "epoch_date_close_approach": 1159398840000,
            "relative_velocity": {
                "kilometers_per_second": "13.3833634601",
                "kilometers_per_hour": "48180.1084564511",
                "miles_per_hour": "29937.2457239543"
            },
            "miss_distance": {
                "astronomical": "0.2007010399",
                "lunar": "78.0727045211",
                "kilometers": "30024448.075825013",
                "miles": "18656326.9289426594"
            },
            "orbiting_body": "Earth"
        },
        {
            "close_approach_date": "2020-10-23",
            "close_approach_date_full": "2020-Oct-23 19:00",
            "epoch_date_close_approach": 1603479600000,
            "relative_velocity": {
                "kilometers_per_second": "7.1377130727",
                "kilometers_per_hour": "25695.7670615593",
                "miles_per_hour": "15966.3503722228"
            },
            "miss_distance": {
                "astronomical": "0.0149923321",
                "lunar": "5.8320171869",
                "kilometers": "2242820.948492627",
                "miles": "1393624.3141751726"
            },
            "orbiting_body": "Earth"
        }
    ],
    "orbital_data": {
        "orbit_id": "6",
        "orbit_determination_date": "2020-10-24 07:47:14",
        "first_observation_date": "2020-10-16",
        "last_observation_date": "2020-10-23",
        "data_arc_in_days": 7,
        "observations_used": 40,
        "orbit_uncertainty": "7",
        "minimum_orbit_intersection": ".0145891",
        "jupiter_tisserand_invariant": "3.994",
        "epoch_osculation": "2459000.5",
        "eccentricity": ".4487619224401789",
        "semi_major_axis": "1.760785683798798",
        "inclination": "2.411501715336854",
        "ascending_node_longitude": "13.18863770681866",
        "orbital_period": "853.4108786305234",
        "perihelion_distance": ".9706121153321042",
        "perihelion_argument": "43.63189728163672",
        "aphelion_distance": "2.550959252265491",
        "perihelion_time": "2459167.769895519953",
        "mean_anomaly": "289.439424906542",
        "mean_motion": ".4218366662699395",
        "equinox": "J2000",
        "orbit_class": {
            "orbit_class_type": "APO",
            "orbit_class_description": "Near-Earth asteroid orbits which cross the Earth’s orbit similar to that of 1862 Apollo",
            "orbit_class_range": "a (semi-major axis) > 1.0 AU; q (perihelion) < 1.017 AU"
        }
    },
    "is_sentry_object": false
}